{"data":[{"barometer":{"hg":29.76,"hpa":1008.0,"kpa":100.79,"mb":1007.92},"clouds":[{"code":"CAVOK","text":"Clear skies"}],"dewpoint":{"celsius":9,"fahrenheit":48},"elevation":{"feet":256,"meters":78},"flight_category":"VFR","humidity":{"percent":100},"icao":"EGTK","observed":"2022-10-22T07:20Z","raw_text":"EGTK 220720Z 20005KT CAVOK 09/09 Q1008","station":{"geometry":{"coordinates":[-1.32,51.836899],"type":"Point"},"location":"Kidlington, GB","name":"Oxford (Kidlington) Airport","type":"Airport"},"temperature":{"celsius":9,"fahrenheit":48},"visibility":{"meters":"10,000+","meters_float":9999,"miles":"Greater than 6","miles_float":6.21},"wind":{"degrees":200,"speed_kph":9,"speed_kts":5,"speed_mph":6,"speed_mps":3},"windchill":{"celsius":7,"fahrenheit":45}}],"results":1}